ONEWEB-0522             
1 54140U 22138AD  26170.34117151  .00000077  00000+0  15987-3 0  9995
2 54140  87.9183 304.5278 0001717 100.1056 260.0270 13.19724804177090
ONEWEB-0523             
1 54141U 22138AE  26170.52929681  .00000094  00000+0  19977-3 0  9997
2 54141  87.9199 273.9735 0002782  96.6852 263.4598 13.20771731179614
ONEWEB-0524             
1 54142U 22138AF  26170.51919959 -.00000002  00000+0 -37648-4 0  9991
2 54142  87.9197 273.9727 0002692 114.2324 245.9091 13.20771290179618
ONEWEB-0525             
1 54143U 22138AG  26170.36011439  .00000237  00000+0  55952-3 0  9996
2 54143  87.9181 304.5314 0001601 110.5078 249.6227 13.19726895177113
ONEWEB-0526             
1 54144U 22138AH  26170.62073694  .00000065  00000+0  13111-3 0  9997
2 54144  87.9186 304.4801 0001833 103.7043 256.4294 13.19726529177127
ONEWEB-0529             
1 54145U 22138AJ  26170.62390090  .00000108  00000+0  23864-3 0  9994
2 54145  87.9176 304.4884 0001698 104.4913 255.6408 13.19724775177142
ONEWEB-0531             
1 54146U 22138AK  26170.27846651  .00000045  00000+0  79556-4 0  9995
2 54146  87.9194 274.0183 0002860 101.8667 258.2788 13.20772347179586
ONEWEB-0535             
1 54147U 22138AL  26170.35379799  .00000091  00000+0  19382-3 0  9990
2 54147  87.9180 304.5268 0002163  94.3518 265.7862 13.19725493177124
ONEWEB-0536             
1 54148U 22138AM  26170.56801843  .00000021  00000+0  20283-4 0  9990
2 54148  87.9185 273.9828 0002983 104.8162 255.3302 13.20771574179616
ONEWEB-0527             
1 54642U 22166A   26170.44752180  .00000083  00000+0  16909-3 0  9993
2 54642  87.9251 243.5476 0001989 100.2766 259.8592 13.21823765171833
ONEWEB-0528             
1 54643U 22166B   26170.22127237  .00000105  00000+0  22270-3 0  9992
2 54643  87.9250 243.5948 0001896 104.3359 255.7986 13.21824729171818
ONEWEB-0539             
1 54644U 22166C   26170.48622043  .00000057  00000+0  10563-3 0  9994
2 54644  87.9260 243.5140 0001931  92.9280 267.2075 13.21827621171843
ONEWEB-0540             
1 54645U 22166D   26170.56877981 -.00000096  00000+0 -26435-3 0  9997
2 54645  87.9253 243.5277 0001999  95.3605 264.7757 13.21826860171842
ONEWEB-0542             
1 54646U 22166E   26170.57200151 -.00000233  00000+0 -59686-3 0  9995
2 54646  87.9263 243.4956 0001916  89.9388 270.1965 13.21826163171852
ONEWEB-0545             
1 54647U 22166F   26170.46099795  .00002403  00000+0  57855-2 0  9998
2 54647  87.9254 243.5299 0002078  82.0166 278.1204 13.21816610171807
ONEWEB-0580             
1 54648U 22166G   26170.43573977  .00000009  00000+0 -90318-5 0  9990
2 54648  87.9253 243.5342 0002175  88.2364 271.9019 13.21827968171849
ONEWEB-0582             
1 54649U 22166H   26170.47781221  .00000041  00000+0  66880-4 0  9999
2 54649  87.9253 243.5184 0002096  86.6478 273.4896 13.21826664171824
ONEWEB-0583             
1 54650U 22166J   26170.56527369 -.00000191  00000+0 -49351-3 0  9993
2 54650  87.9252 243.5244 0002010  95.6660 264.4703 13.21826178171840
ONEWEB-0584             
1 54651U 22166K   26170.43407142 -.00000017  00000+0 -73614-4 0  9993
2 54651  87.9246 243.5359 0002094  95.5765 264.5608 13.21825591171818
ONEWEB-0585             
1 54652U 22166L   26170.45762853  .00000134  00000+0  29213-3 0  9992
2 54652  87.9255 243.5184 0002019 103.5216 256.6143 13.21826973171825
ONEWEB-0586             
1 54653U 22166M   26170.47107663 -.00000003  00000+0 -39067-4 0  9993
2 54653  87.9256 243.5411 0001952  93.8146 266.3211 13.21824341171829
ONEWEB-0587             
1 54654U 22166N   26170.48116881  .00000031  00000+0  44614-4 0  9990
2 54654  87.9265 243.5127 0002070 108.1313 252.0047 13.21824451171980
ONEWEB-0589             
1 54655U 22166P   26170.46771290  .00000065  00000+0  12684-3 0  9998
2 54655  87.9251 243.5273 0002320  76.8989 283.2404 13.21825051171841
ONEWEB-0590             
1 54656U 22166Q   26170.56850596 -.00000107  00000+0 -28961-3 0  9991
2 54656  87.9261 243.4978 0002481  98.8004 261.3412 13.21826854171842
ONEWEB-0591             
1 54657U 22166R   26170.42903456  .00000095  00000+0  19822-3 0  9991
2 54657  87.9251 243.5400 0002116  98.3376 261.7998 13.21826865171851
ONEWEB-0592             
1 54658U 22166S   26170.43238270 -.00000003  00000+0 -39720-4 0  9999
2 54658  87.9261 243.5177 0002025  98.5922 261.5442 13.21827880171739
ONEWEB-0593             
1 54659U 22166T   26170.45425006  .00000107  00000+0  22870-3 0  9997
2 54659  87.9254 243.5249 0001900  95.1269 265.0082 13.21825095171847
ONEWEB-0594             
1 54660U 22166U   26170.47444536  .00000099  00000+0  20829-3 0  9992
2 54660  87.9252 243.5371 0001922 103.0365 257.0984 13.21828435171868
ONEWEB-0595             
1 54661U 22166V   26170.45088356  .00000135  00000+0  29620-3 0  9994
2 54661  87.9260 243.5225 0002146 104.9196 255.2176 13.21828244171835
ONEWEB-0596             
1 54662U 22166W   26170.50136075 -.00000039  00000+0 -12495-3 0  9990
2 54662  87.9254 243.5240 0002066 101.3454 258.7913 13.21827138171844
