OBJECT_NAME,OBJECT_ID,EPOCH,MEAN_MOTION,ECCENTRICITY,INCLINATION,RA_OF_ASC_NODE,ARG_OF_PERICENTER,MEAN_ANOMALY,EPHEMERIS_TYPE,CLASSIFICATION_TYPE,NORAD_CAT_ID,ELEMENT_SET_NO,REV_AT_EPOCH,BSTAR,MEAN_MOTION_DOT,MEAN_MOTION_DDOT
ONEWEB-0522,2022-138AD,2026-06-19T08:11:17.218464,13.19724804,.00017171,87.9183,304.5278,100.1056,260.0270,0,U,54140,999,17709,.15987024E-3,.77E-6,0
ONEWEB-0523,2022-138AE,2026-06-19T12:42:11.244384,13.20771731,.00027828,87.9199,273.9735,96.6852,263.4598,0,U,54141,999,17961,.19977053E-3,.94E-6,0
ONEWEB-0524,2022-138AF,2026-06-19T12:27:38.844576,13.20771290,.00026924,87.9197,273.9727,114.2324,245.9091,0,U,54142,999,17961,-.37647542E-4,-.2E-7,0
ONEWEB-0525,2022-138AG,2026-06-19T08:38:33.883296,13.19726895,.00016019,87.9181,304.5314,110.5078,249.6227,0,U,54143,999,17711,.55952079E-3,.237E-5,0
ONEWEB-0526,2022-138AH,2026-06-19T14:53:51.671616,13.19726529,.00018331,87.9186,304.4801,103.7043,256.4294,0,U,54144,999,17712,.13111261E-3,.65E-6,0
ONEWEB-0529,2022-138AJ,2026-06-19T14:58:25.037760,13.19724775,.00016989,87.9176,304.4884,104.4913,255.6408,0,U,54145,999,17714,.23863853E-3,.108E-5,0
ONEWEB-0531,2022-138AK,2026-06-19T06:40:59.506464,13.20772347,.00028609,87.9194,274.0183,101.8667,258.2788,0,U,54146,999,17958,.79555976E-4,.45E-6,0
ONEWEB-0535,2022-138AL,2026-06-19T08:29:28.146336,13.19725493,.00021632,87.9180,304.5268,94.3518,265.7862,0,U,54147,999,17712,.1938154E-3,.91E-6,0
ONEWEB-0536,2022-138AM,2026-06-19T13:37:56.792352,13.20771574,.00029835,87.9185,273.9828,104.8162,255.3302,0,U,54148,999,17961,.20283445E-4,.21E-6,0
ONEWEB-0527,2022-166A,2026-06-19T10:44:25.883520,13.21823765,.0001989,87.9251,243.5476,100.2766,259.8592,0,U,54642,999,17183,.16908981E-3,.83E-6,0
ONEWEB-0528,2022-166B,2026-06-19T05:18:37.932768,13.21824729,.00018967,87.9250,243.5948,104.3359,255.7986,0,U,54643,999,17181,.22270193E-3,.105E-5,0
ONEWEB-0539,2022-166C,2026-06-19T11:40:09.445152,13.21827621,.00019317,87.9260,243.5140,92.9280,267.2075,0,U,54644,999,17184,.10563242E-3,.57E-6,0
ONEWEB-0540,2022-166D,2026-06-19T13:39:02.575584,13.21826860,.00019997,87.9253,243.5277,95.3605,264.7757,0,U,54645,999,17184,-.26435136E-3,-.96E-6,0
ONEWEB-0542,2022-166E,2026-06-19T13:43:40.930464,13.21826163,.00019169,87.9263,243.4956,89.9388,270.1965,0,U,54646,999,17185,-.59685897E-3,-.233E-5,0
ONEWEB-0545,2022-166F,2026-06-19T11:03:50.222880,13.21816610,.00020785,87.9254,243.5299,82.0166,278.1204,0,U,54647,999,17180,.57854672E-2,.2403E-4,0
ONEWEB-0580,2022-166G,2026-06-19T10:27:27.916128,13.21827968,.0002175,87.9253,243.5342,88.2364,271.9019,0,U,54648,999,17184,-.9031844E-5,.9E-7,0
ONEWEB-0582,2022-166H,2026-06-19T11:28:02.974944,13.21826664,.00020963,87.9253,243.5184,86.6478,273.4896,0,U,54649,999,17182,.668795E-4,.41E-6,0
ONEWEB-0583,2022-166J,2026-06-19T13:33:59.646816,13.21826178,.00020107,87.9252,243.5244,95.6660,264.4703,0,U,54650,999,17184,-.49351235E-3,-.191E-5,0
ONEWEB-0584,2022-166K,2026-06-19T10:25:03.770688,13.21825591,.00020948,87.9246,243.5359,95.5765,264.5608,0,U,54651,999,17181,-.73613677E-4,-.17E-6,0
ONEWEB-0585,2022-166L,2026-06-19T10:58:59.104992,13.21826973,.00020191,87.9255,243.5184,103.5216,256.6143,0,U,54652,999,17182,.29212694E-3,.134E-5,0
ONEWEB-0586,2022-166M,2026-06-19T11:18:21.020832,13.21824341,.00019526,87.9256,243.5411,93.8146,266.3211,0,U,54653,999,17182,-.39066983E-4,-.3E-7,0
ONEWEB-0587,2022-166N,2026-06-19T11:32:52.985184,13.21824451,.00020706,87.9265,243.5127,108.1313,252.0047,0,U,54654,999,17198,.44614299E-4,.31E-6,0
ONEWEB-0589,2022-166P,2026-06-19T11:13:30.394560,13.21825051,.00023206,87.9251,243.5273,76.8989,283.2404,0,U,54655,999,17184,.12683934E-3,.65E-6,0
ONEWEB-0590,2022-166Q,2026-06-19T13:38:38.914944,13.21826854,.00024816,87.9261,243.4978,98.8004,261.3412,0,U,54656,999,17184,-.28960931E-3,-.107E-5,0
ONEWEB-0591,2022-166R,2026-06-19T10:17:48.585984,13.21826865,.00021167,87.9251,243.5400,98.3376,261.7998,0,U,54657,999,17185,.19821717E-3,.95E-6,0
ONEWEB-0592,2022-166S,2026-06-19T10:22:37.865280,13.21827880,.00020252,87.9261,243.5177,98.5922,261.5442,0,U,54658,999,17173,-.39720387E-4,-.3E-7,0
ONEWEB-0593,2022-166T,2026-06-19T10:54:07.205184,13.21825095,.00019,87.9254,243.5249,95.1269,265.0082,0,U,54659,999,17184,.2287013E-3,.107E-5,0
ONEWEB-0594,2022-166U,2026-06-19T11:23:12.079104,13.21828435,.00019221,87.9252,243.5371,103.0365,257.0984,0,U,54660,999,17186,.20828712E-3,.99E-6,0
ONEWEB-0595,2022-166V,2026-06-19T10:49:16.339584,13.21828244,.00021462,87.9260,243.5225,104.9196,255.2176,0,U,54661,999,17183,.29620098E-3,.135E-5,0
ONEWEB-0596,2022-166W,2026-06-19T12:01:57.568800,13.21827138,.00020664,87.9254,243.5240,101.3454,258.7913,0,U,54662,999,17184,-.12494626E-3,-.39E-6,0
